[{"OBJECT_NAME":"STARLINK-34373","OBJECT_ID":"2025-158N","EPOCH":"2026-03-09T15:02:29.418432","MEAN_MOTION":15.05649454,"ECCENTRICITY":0.0003423,"INCLINATION":97.6023,"RA_OF_ASC_NODE":293.9826,"ARG_OF_PERICENTER":86.373,"MEAN_ANOMALY":273.7888,"EPHEMERIS_TYPE":0,"CLASSIFICATION_TYPE":"U","NORAD_CAT_ID":64944,"ELEMENT_SET_NO":999,"REV_AT_EPOCH":3534,"BSTAR":0.00024766,"MEAN_MOTION_DOT":3.515e-5,"MEAN_MOTION_DDOT":0},{"OBJECT_NAME":"PEGASUS DEB","OBJECT_ID":"1994-029AEX","EPOCH":"2026-03-09T10:21:12.559968","MEAN_MOTION":14.69785081,"ECCENTRICITY":0.01957394,"INCLINATION":81.9702,"RA_OF_ASC_NODE":117.9188,"ARG_OF_PERICENTER":51.5385,"MEAN_ANOMALY":310.3202,"EPHEMERIS_TYPE":0,"CLASSIFICATION_TYPE":"U","NORAD_CAT_ID":39312,"ELEMENT_SET_NO":999,"REV_AT_EPOCH":67444,"BSTAR":0.0006881266,"MEAN_MOTION_DOT":5.551e-5,"MEAN_MOTION_DDOT":0}]
